STARLINK-2022           
1 47643U 21012Z   24113.79175840 -.00000839  00000+0 -37450-4 0  9996
2 47643  53.0536 250.7270 0001511  75.7674 284.3483 15.06370062176887
